#aV2016  5 16  0  0  0.00000000     288 DD+AD WGS84 FIT  NGA
## 1897  86400.00000000   300.00000000 57524 0.0000000000000
+   31     1  2  3  5  6  7  8  9 10 11 12 13 14 15 16 17 18
+         19 20 21 22 23 24 25 26 27 28 29 30 31 32  0  0  0
+          0  0  0  0  0  0  0  0  0  0  0  0  0  0  0  0  0
+          0  0  0  0  0  0  0  0  0  0  0  0  0  0  0  0  0
+          0  0  0  0  0  0  0  0  0  0  0  0  0  0  0  0  0
++         2  2  2  2  2  2  2  2  2  2  2  2  2  2  2  2  2
++         2  2  2  2  2  2  2  2  2  2  2  2  2  2  0  0  0
++         0  0  0  0  0  0  0  0  0  0  0  0  0  0  0  0  0
++         0  0  0  0  0  0  0  0  0  0  0  0  0  0  0  0  0
++         0  0  0  0  0  0  0  0  0  0  0  0  0  0  0  0  0
%c cc cc ccc ccc cccc cccc cccc cccc ccccc ccccc ccccc ccccc
%c cc cc ccc ccc cccc cccc cccc cccc ccccc ccccc ccccc ccccc
%f  0.0000000  0.000000000  0.00000000000  0.000000000000000
%f  0.0000000  0.000000000  0.00000000000  0.000000000000000
%i    0    0    0    0      0      0      0      0         0
%i    0    0    0    0      0      0      0      0         0
/*      NGA, ST. LOUIS,MO.                                  
/*   EPHEMERIS COMPUTED FROM 2 DAYS OF DATA                 
/*   EPOCHA v2.4 SMOOTHER                                   
/*   G1762 IERS2010 SATAF SATAPC                            
*  2016  5 16  2 45  0.00000000
P  1  21047.903778  14249.490389  -8188.685869     20.515254                    
V  1 -10371.237704  -1531.431233 -29370.794814      0.012102                    
P  2  -2049.836167 -16777.563848  21005.104085    591.588532                    
V  2  24531.774655   7559.370366   8220.558936     -0.022091                    
P  3  13318.403396  17616.269116  14760.071994    -58.099641                    
V  3    889.731073  18833.795062 -23295.796964     -0.037538                    
P  5  -2782.581100 -26191.163631   2386.530359   -120.535154                    
V  5   3923.139341   2501.489996  31362.323418      0.030613                    
P  6  14478.795264  -9492.192852  20157.467326    190.811496                    
V  6  23537.730588  10002.484705 -12200.902587      0.055067                    
P  7  25284.125401   5015.719812  -7093.338314    454.350441                    
V  7   7580.829158   5464.714700  29907.809693     -0.022037                    
P  8   4444.335857  15381.806357 -21134.132636    -35.286405                    
V  8 -21214.082491  16641.992340   7668.416644     -0.014535                    
P  9  21150.870767  -3025.991777  15771.800485    129.878841                    
V  9 -14157.310765  14363.087190  21702.746637      0.073365                    
P 10 -11861.256714  13158.398720 -19749.687950    -23.303140                    
V 10  -5309.203746 -24608.925301 -13257.550800     -0.090020                    
P 11  17702.246521  12573.391620 -15877.579641   -647.027674                    
V 11 -19370.680055   3105.087704 -19799.189162     -0.014447                    
P 12 -10473.326216 -21051.730181  12434.045329    379.807639                    
V 12   -273.325779 -15934.232564 -26712.456924      0.012187                    
P 13   4866.627168 -18333.255000 -18757.278900    -18.113030                    
V 13  20422.524474 -11666.102950  16730.133165     -0.026125                    
P 14 -20488.683953  16580.330618   2768.157996    -14.057139                    
V 14  -4239.987325   -463.963522 -31680.380193     -0.021005                    
P 15  -8811.014223 -13394.541290 -21273.786782   -311.064847                    
V 15  20141.161234 -17799.046327   3230.119084     -0.016751                    
P 16    368.635714  26164.187066   2976.053887    -17.327931                    
V 16  -2519.192649  -3729.599418  32373.403164      0.025861                    
P 17  21807.416141 -14863.987145  -1556.266564   -203.718594                    
V 17   -432.140443   3418.543718 -32143.946966     -0.001573                    
P 18 -15975.575593   -422.138090 -20696.508188    516.038183                    
V 18  -4848.152657 -27232.841987   3933.317657      0.041707                    
P 19  17980.435492 -18207.977757   7562.926156   -525.687772                    
V 19   9281.812806  -3782.610195 -29848.651289      0.000459                    
P 20 -13626.670641 -19919.715683 -11189.530950    412.470119                    
V 20   -176.117361 -14463.363406  26359.124955      0.023642                    
P 21 -24815.839676  -1744.379763  -8885.871457   -522.786319                    
V 21 -10536.240706  -7134.285303  28190.916236     -0.012692                    
P 22   9885.188715  23670.603490   6871.284379    341.518069                    
V 22  -2175.002122   9080.023344 -29297.018216     -0.081358                    
P 23  15751.719473   6379.799445  20696.777977   -173.955613                    
V 23 -19504.147078  16910.668464   9279.416351     -0.016642                    
P 24 -18870.857317 -15174.419025 -11191.207808    -17.115861                    
V 24  14125.004319   2280.185324 -26858.120382     -0.006047                    
P 25 -14943.255992  -9624.509336  19676.415470   -172.167622                    
V 25  -3037.383959 -24977.819915 -14244.520389     -0.070527                    
P 26  -5284.492112  22621.695669  12827.252240   -365.439632                    
V 26  -5003.697829 -15702.821072  25666.733972     -0.123881                    
P 27  -6528.707227  19825.815544 -16353.978360     92.943309                    
V 27 -17141.399706  11825.596333  21383.445802      0.040507                    
P 28  12320.965951 -11114.429864 -20102.330412    523.308528                    
V 28   3137.434731  26717.850803 -12509.462839      0.026715                    
P 29 -19543.710312   -764.194205  17955.211422    657.164055                    
V 29  17618.086823 -14470.288546  18613.577434     -0.000869                    
P 30  21404.661203  -2385.592258 -15616.258588    125.562214                    
V 30  17113.677394  10166.234473  21819.620124      0.030988                    
P 31 -12059.565098  10712.496092  21268.129810    268.792853                    
V 31 -24418.944208 -10720.129261  -8132.913689     -0.018634                    
P 32 -20596.924996  16756.695894   -253.937341     -6.767733                    
V 32  -1560.709375  -2413.930764 -31745.213197     -0.058757                    
EOF
